NORAD_CAT_ID,OBJECT_NAME,OBJECT_TYPE,EPOCH,MEAN_MOTION,ECCENTRICITY,INCLINATION,RA_OF_ASC_NODE,ARG_OF_PERICENTER,MEAN_ANOMALY,BSTAR,MEAN_MOTION_DOT,MEAN_MOTION_DDOT,TLE_LINE0,TLE_LINE1,TLE_LINE2,SEMIMAJOR_AXIS,PERIOD,APOGEE,PERIGEE,DECAYED
52990.0,STARLINK-4286,PAYLOAD,2024-05-02 13:33:39,15.08798097,0.0001099,53.2172,259.3633,107.7268,252.3844,-0.0003301,-5.531e-05,0.0,0 STARLINK-4286,1 52990U 22076E   24123.56504180 -.00005531  00000-0 -33010-3 0  9999,2 52990  53.2172 259.3633 0001099 107.7268 252.3844 15.08798097101103,6918.008,95.44,540.634,539.113,0.0
52990.0,STARLINK-4286,PAYLOAD,2024-05-02 15:09:02,15.08800766,0.0001077,53.2172,259.065,107.776,252.335,-0.0003616,-6.032e-05,0.0,0 STARLINK-4286,1 52990U 22076E   24123.63128170 -.00006032  00000-0 -36160-3 0  9994,2 52990  53.2172 259.0650 0001077 107.7760 252.3350 15.08800766100649,6918.0,95.44,540.61,539.12,0.0
52990.0,STARLINK-4286,PAYLOAD,2024-05-03 02:16:44,15.08811856,0.000106,53.2192,256.9838,105.5827,254.5282,-0.00022978,-3.94e-05,0.0,0 STARLINK-4286,1 52990U 22076E   24124.09495747 -.00003940  00000-0 -22978-3 0  9999,2 52990  53.2192 256.9838 0001060 105.5827 254.5282 15.08811856101187,6917.966,95.439,540.565,539.098,0.0
52990.0,STARLINK-4286,PAYLOAD,2024-05-03 13:24:24,15.08824079,7.66e-05,53.2148,254.905,95.777,264.3309,-0.00060834,-9.952e-05,0.0,0 STARLINK-4286,1 52990U 22076E   24124.55861767 -.00009952  00000-0 -60834-3 0  9991,2 52990  53.2148 254.9050 0000766  95.7770 264.3309 15.08824079101259,6917.929,95.439,540.324,539.264,0.0
52990.0,STARLINK-4286,PAYLOAD,2024-05-03 14:59:47,15.08824792,0.0001068,53.2136,254.6067,89.1593,270.9522,-0.00055734,-9.143e-05,0.0,0 STARLINK-4286,1 52990U 22076E   24124.62485881 -.00009143  00000-0 -55734-3 0  9993,2 52990  53.2136 254.6067 0001068  89.1593 270.9522 15.08824792100797,6917.927,95.439,540.531,539.053,0.0
52990.0,STARLINK-4286,PAYLOAD,2024-05-03 18:10:30,15.08896112,0.0001196,53.2168,254.0085,90.0767,270.0362,-0.0023412,-0.00037412,0.0,0 STARLINK-4286,1 52990U 22076E   24124.75730215 -.00037412  00000-0 -23412-2 0  9998,2 52990  53.2168 254.0085 0001196  90.0767 270.0362 15.08896112101285,6917.709,95.434,540.401,538.747,0.0
52990.0,STARLINK-4286,PAYLOAD,2024-05-04 02:07:31,15.08832132,0.0001171,53.2163,252.5227,115.4884,244.6229,0.0013543,0.00021327,0.0,0 STARLINK-4286,1 52990U 22076E   24125.08855648  .00021327  00000-0  13543-2 0  9993,2 52990  53.2163 252.5227 0001171 115.4884 244.6229 15.08832132101333,6917.904,95.438,540.58,538.959,0.0
52990.0,STARLINK-4286,PAYLOAD,2024-05-05 13:05:59,15.0886626,0.0001071,53.2171,245.9801,110.757,249.3537,0.00083041,0.00012962,0.0,0 STARLINK-4286,1 52990U 22076E   24126.54582509  .00012962  00000-0  83041-3 0  9994,2 52990  53.2171 245.9801 0001071 110.7570 249.3537 15.08866260101552,6917.8,95.436,540.406,538.924,0.0
52990.0,STARLINK-4286,PAYLOAD,2024-05-06 12:56:45,15.08857501,0.0001171,53.218,241.5202,90.0262,270.0864,0.00023613,3.474e-05,0.0,0 STARLINK-4286,1 52990U 22076E   24127.53941777  .00003474  00000-0  23613-3 0  9997,2 52990  53.2180 241.5202 0001171  90.0262 270.0864 15.08857501101707,6917.827,95.436,540.502,538.882,0.0
52990.0,STARLINK-4286,PAYLOAD,2024-05-06 14:32:08,15.08863317,0.0001092,53.2185,241.225,91.8173,268.2944,0.00032531,4.896e-05,0.0,0 STARLINK-4286,1 52990U 22076E   24127.60565580  .00004896  00000-0  32531-3 0  9997,2 52990  53.2185 241.2250 0001092  91.8173 268.2944 15.08863317101243,6917.809,95.436,540.43,538.919,0.0
52990.0,STARLINK-4286,PAYLOAD,2024-05-07 12:47:32,15.08844057,0.0001043,53.2181,237.0605,94.9118,265.1993,-4.6779e-05,-1.032e-05,0.0,0 STARLINK-4286,1 52990U 22076E   24128.53301748 -.00001032  00000-0 -46779-4 0  9995,2 52990  53.2181 237.0605 0001043  94.9118 265.1993 15.08844057101852,6917.868,95.437,540.455,539.011,0.0
52990.0,STARLINK-4286,PAYLOAD,2024-05-08 14:13:42,15.08852889,0.0001085,53.2175,232.3023,73.132,286.9791,0.00026439,3.924e-05,0.0,0 STARLINK-4286,1 52990U 22076E   24129.59285321  .00003924  00000-0  26439-3 0  9990,2 52990  53.2175 232.3023 0001085  73.1320 286.9791 15.08852889101542,6917.841,95.437,540.457,538.955,0.0
52990.0,STARLINK-4286,PAYLOAD,2024-05-08 23:46:01,15.08847665,8.18e-05,53.2173,230.518,87.7137,272.3949,0.00017599,2.515e-05,0.0,0 STARLINK-4286,1 52990U 22076E   24129.99029483  .00002515  00000-0  17599-3 0  9991,2 52990  53.2173 230.5180 0000818  87.7137 272.3949 15.08847665102073,6917.857,95.437,540.288,539.156,0.0
52990.0,STARLINK-4286,PAYLOAD,2024-05-09 12:29:06,15.08840845,0.000116,53.2178,228.1394,93.6828,266.4297,7.9898e-05,9.84e-06,0.0,0 STARLINK-4286,1 52990U 22076E   24130.52021825  .00000984  00000-0  79898-4 0  9993,2 52990  53.2178 228.1394 0001160  93.6828 266.4297 15.08840845102154,6917.878,95.438,540.545,538.94,0.0
52990.0,STARLINK-4286,PAYLOAD,2024-05-09 14:04:29,15.08852478,0.0001009,53.2175,227.8422,99.2204,260.8903,0.00027641,4.115e-05,0.0,0 STARLINK-4286,1 52990U 22076E   24130.58645365  .00004115  00000-0  27641-3 0  9998,2 52990  53.2175 227.8422 0001009  99.2204 260.8903 15.08852478101696,6917.842,95.437,540.405,539.009,0.0
52990.0,STARLINK-4286,PAYLOAD,2024-05-10 12:19:54,15.08831906,0.0001024,53.217,223.6784,96.751,263.3598,-4.5181e-05,-1.007e-05,0.0,0 STARLINK-4286,1 52990U 22076E   24131.51382681 -.00001007  00000-0 -45181-4 0  9990,2 52990  53.2170 223.6784 0001024  96.7510 263.3598 15.08831906102305,6917.905,95.438,540.479,539.062,0.0
52990.0,STARLINK-4286,PAYLOAD,2024-05-10 13:55:17,15.0883443,9.89e-05,53.2171,223.3813,92.1034,268.0071,3.6163e-05,2.88e-06,0.0,0 STARLINK-4286,1 52990U 22076E   24131.58006679  .00000288  00000-0  36163-4 0  9995,2 52990  53.2171 223.3813 0000989  92.1034 268.0071 15.08834430101847,6917.897,95.438,540.447,539.078,0.0
52990.0,STARLINK-4286,PAYLOAD,2024-05-11 12:10:39,15.08948237,0.0001097,53.2175,219.2165,92.3207,267.791,0.0043318,0.00069539,0.0,0 STARLINK-4286,1 52990U 22076E   24132.50740053  .00069539  00000-0  43318-2 0  9991,2 52990  53.2175 219.2165 0001097  92.3207 267.7910 15.08948237102457,6917.55,95.431,540.173,538.656,0.0
52990.0,STARLINK-4286,PAYLOAD,2024-05-11 15:21:25,15.08921659,0.0001487,53.2189,218.6226,82.0974,278.0187,0.0020925,0.00033246,0.0,0 STARLINK-4286,1 52990U 22076E   24132.63987562  .00033246  00000-0  20925-2 0  9998,2 52990  53.2189 218.6226 0001487  82.0974 278.0187 15.08921659102475,6917.631,95.432,540.524,538.467,0.0
52990.0,STARLINK-4286,PAYLOAD,2024-05-12 05:39:58,15.08743686,0.0003476,53.217,215.9485,90.6666,269.4724,-0.0030305,-0.00048078,0.0,0 STARLINK-4286,1 52990U 22076E   24133.23609278 -.00048078  00000-0 -30305-2 0  9994,2 52990  53.2170 215.9485 0003476  90.6666 269.4724 15.08743686102568,6918.175,95.444,542.445,537.635,0.0
52990.0,STARLINK-4286,PAYLOAD,2024-05-12 12:01:33,15.08688971,0.0001772,53.217,214.758,110.2242,249.8941,-0.002918,-0.0004624,0.0,0 STARLINK-4286,1 52990U 22076E   24133.50108165 -.00046240  00000-0 -29180-2 0  9991,2 52990  53.2170 214.7580 0001772 110.2242 249.8941 15.08688971102600,6918.342,95.447,541.433,538.981,0.0
52990.0,STARLINK-4286,PAYLOAD,2024-05-13 05:30:49,15.08817084,0.0001226,53.2172,211.4883,55.8478,304.263,0.0029656,0.00047196,0.0,0 STARLINK-4286,1 52990U 22076E   24134.22973617  .00047196  00000-0  29656-2 0  9990,2 52990  53.2172 211.4883 0001226  55.8478 304.2630 15.08817084102713,6917.95,95.439,540.664,538.967,0.0
52990.0,STARLINK-4286,PAYLOAD,2024-05-13 11:52:20,15.08916093,0.0001591,53.217,210.2982,98.1574,261.9599,0.0041,0.00065709,0.0,0 STARLINK-4286,1 52990U 22076E   24134.49467801  .00065709  00000-0  41000-2 0  9999,2 52990  53.2170 210.2982 0001591  98.1574 261.9599 15.08916093102285,6917.648,95.433,540.613,538.412,0.0
52990.0,STARLINK-4286,PAYLOAD,2024-05-14 05:21:31,15.08922388,0.0001784,53.2169,207.0267,98.4718,261.6476,-0.0011072,-0.00017906,0.0,0 STARLINK-4286,1 52990U 22076E   24135.22328123 -.00017906  00000-0 -11072-2 0  9998,2 52990  53.2169 207.0267 0001784  98.4718 261.6476 15.08922388102869,6917.629,95.432,540.728,538.259,0.0
52990.0,STARLINK-4286,PAYLOAD,2024-05-14 11:43:03,15.08894947,9.26e-05,53.217,205.837,85.784,274.3258,-0.00051658,-8.512e-05,0.0,0 STARLINK-4286,1 52990U 22076E   24135.48823872 -.00008512  00000-0 -51658-3 0  9995,2 52990  53.2170 205.8370 0000926  85.7840 274.3258 15.08894947102907,6917.712,95.434,540.218,538.937,0.0
52990.0,STARLINK-4286,PAYLOAD,2024-05-14 21:15:22,15.0886976,0.0001065,53.2165,204.0529,65.9275,294.1828,-1.6883e-06,-3.15e-06,0.0,0 STARLINK-4286,1 52990U 22076E   24135.88567357 -.00000315  00000-0 -16883-5 0  9998,2 52990  53.2165 204.0529 0001065  65.9275 294.1828 15.08869760102497,6917.789,95.436,540.391,538.918,0.0
52990.0,STARLINK-4286,PAYLOAD,2024-05-15 05:12:17,15.08859756,0.0001681,53.2176,202.5677,89.0674,271.0511,2.9766e-06,-2.41e-06,0.0,0 STARLINK-4286,1 52990U 22076E   24136.21687370 -.00000241  00000-0  29766-5 0  9995,2 52990  53.2176 202.5677 0001681  89.0674 271.0511 15.08859756103016,6917.82,95.436,540.848,538.522,0.0
52990.0,STARLINK-4286,PAYLOAD,2024-05-15 11:33:50,15.08858857,0.000139,53.2184,201.3793,100.7625,259.3523,3.5003e-05,2.69e-06,0.0,0 STARLINK-4286,1 52990U 22076E   24136.48183073  .00000269  00000-0  35003-4 0  9994,2 52990  53.2184 201.3793 0001390 100.7625 259.3523 15.08858857102589,6917.823,95.436,540.649,538.726,0.0
52990.0,STARLINK-4286,PAYLOAD,2024-05-15 21:06:08,15.08848805,0.00013,53.2168,199.5928,93.1251,266.989,0.00037769,5.73e-05,0.0,0 STARLINK-4286,1 52990U 22076E   24136.87927079  .00005730  00000-0  37769-3 0  9997,2 52990  53.2168 199.5928 0001300  93.1251 266.9890 15.08848805103113,6917.853,95.437,540.618,538.819,0.0
52990.0,STARLINK-4286,PAYLOAD,2024-05-16 12:59:59,15.08856925,0.0001208,53.2175,196.6199,93.9691,266.1439,0.00015614,2.199e-05,0.0,0 STARLINK-4286,1 52990U 22076E   24137.54166303  .00002199  00000-0  15614-3 0  9998,2 52990  53.2175 196.6199 0001208  93.9691 266.1439 15.08856925102743,6917.829,95.436,540.529,538.858,0.0
